start=new Date('2022-04-02T00:00:00.000Z').valueOf();
sats=[{"APOAPSIS":"548.192","REF_FRAME":"TEME","RCS_SIZE":"LARGE","ELEMENT_SET_NO":"999","DECAY_DATE":null,"RA_OF_ASC_NODE":"177.1482","EPOCH":"2022-04-01T16:03:51.561792","REV_AT_EPOCH":"6115","EPHEMERIS_TYPE":"0","ECCENTRICITY":"0.00015570","ARG_OF_PERICENTER":"61.7096","PERIAPSIS":"546.035","MEAN_MOTION_DOT":"0.00015204","GP_ID":"200263929","OBJECT_NAME":"STARLINK-2157","MEAN_MOTION_DDOT":"0.0000000000000","SITE":"AFETR","SEMIMAJOR_AXIS":"6925.248","CLASSIFICATION_TYPE":"U","MEAN_ANOMALY":"298.4050","LAUNCH_DATE":"2021-03-04","TLE_LINE1":"1 47743U 21017X   22091.66934678  .00015204  00000-0  10365-2 0  9998","MEAN_MOTION":"15.06432659","CENTER_NAME":"EARTH","TIME_SYSTEM":"UTC","TLE_LINE2":"2 47743  53.0557 177.1482 0001557  61.7096 298.4050 15.06432659 61151","NORAD_CAT_ID":"47743","OBJECT_ID":"2021-017X","PERIOD":"95.590","OBJECT_TYPE":"PAYLOAD","FILE":"3383778","INCLINATION":"53.0557","BSTAR":"0.00103650000000","COUNTRY_CODE":"US","MEAN_ELEMENT_THEORY":"SGP4"},{"REF_FRAME":"TEME","APOAPSIS":"548.119","DECAY_DATE":null,"RCS_SIZE":"LARGE","ELEMENT_SET_NO":"999","PERIAPSIS":"546.261","MEAN_MOTION_DOT":"0.00001717","EPHEMERIS_TYPE":"0","ECCENTRICITY":"0.00013420","ARG_OF_PERICENTER":"51.7610","RA_OF_ASC_NODE":"176.9582","EPOCH":"2022-04-01T17:07:33.923712","REV_AT_EPOCH":"6118","SITE":"AFETR","MEAN_MOTION_DDOT":"0.0000000000000","OBJECT_NAME":"STARLINK-2158","GP_ID":"200262685","MEAN_ANOMALY":"308.3500","CLASSIFICATION_TYPE":"U","SEMIMAJOR_AXIS":"6925.325","TLE_LINE2":"2 47744  53.0548 176.9582 0001342  51.7610 308.3500 15.06407721 61189","CENTER_NAME":"EARTH","MEAN_MOTION":"15.06407721","TIME_SYSTEM":"UTC","LAUNCH_DATE":"2021-03-04","TLE_LINE1":"1 47744U 21017Y   22091.71358708  .00001717  00000-0  13411-3 0  9999","OBJECT_TYPE":"PAYLOAD","FILE":"3383778","PERIOD":"95.592","OBJECT_ID":"2021-017Y","NORAD_CAT_ID":"47744","MEAN_ELEMENT_THEORY":"SGP4","BSTAR":"0.00013411000000","COUNTRY_CODE":"US","INCLINATION":"53.0548"},{"GP_ID":"200229654","OBJECT_NAME":"STARLINK-2159","MEAN_MOTION_DDOT":"0.0000000000000","SITE":"AFETR","EPOCH":"2022-04-01T13:02:04.455168","RA_OF_ASC_NODE":"187.7152","REV_AT_EPOCH":"6096","EPHEMERIS_TYPE":"0","ECCENTRICITY":"0.00014090","ARG_OF_PERICENTER":"74.0075","PERIAPSIS":"546.177","MEAN_MOTION_DOT":"0.00007480","RCS_SIZE":"LARGE","ELEMENT_SET_NO":"999","DECAY_DATE":null,"APOAPSIS":"548.128","REF_FRAME":"TEME","INCLINATION":"53.0517","COUNTRY_CODE":"US","BSTAR":"0.00052027000000","MEAN_ELEMENT_THEORY":"SGP4","NORAD_CAT_ID":"47745","OBJECT_ID":"2021-017Z","PERIOD":"95.591","OBJECT_TYPE":"PAYLOAD","FILE":"3383353","LAUNCH_DATE":"2021-03-04","TLE_LINE1":"1 47745U 21017Z   22091.54310712  .00007480  00000-0  52027-3 0  9993","MEAN_MOTION":"15.06419977","CENTER_NAME":"EARTH","TIME_SYSTEM":"UTC","TLE_LINE2":"2 47745  53.0517 187.7152 0001409  74.0075 286.1069 15.06419977 60960","SEMIMAJOR_AXIS":"6925.287","CLASSIFICATION_TYPE":"U","MEAN_ANOMALY":"286.1069"},{"PERIAPSIS":"545.871","MEAN_MOTION_DOT":"0.00019892","ECCENTRICITY":"0.00018130","EPHEMERIS_TYPE":"0","ARG_OF_PERICENTER":"58.4638","RA_OF_ASC_NODE":"186.8439","EPOCH":"2022-04-01T17:38:04.681824","REV_AT_EPOCH":"6098","SITE":"AFETR","MEAN_MOTION_DDOT":"0.0000000000000","GP_ID":"200263687","OBJECT_NAME":"STARLINK-2160","REF_FRAME":"TEME","APOAPSIS":"548.382","DECAY_DATE":null,"RCS_SIZE":"LARGE","ELEMENT_SET_NO":"999","OBJECT_TYPE":"PAYLOAD","FILE":"3383778","PERIOD":"95.590","OBJECT_ID":"2021-017AA","NORAD_CAT_ID":"47746","MEAN_ELEMENT_THEORY":"SGP4","COUNTRY_CODE":"US","BSTAR":"0.00134950000000","INCLINATION":"53.0545","MEAN_ANOMALY":"301.6528","CLASSIFICATION_TYPE":"U","SEMIMAJOR_AXIS":"6925.262","TLE_LINE2":"2 47746  53.0545 186.8439 0001813  58.4638 301.6528 15.06428383 60986","MEAN_MOTION":"15.06428383","CENTER_NAME":"EARTH","TIME_SYSTEM":"UTC","LAUNCH_DATE":"2021-03-04","TLE_LINE1":"1 47746U 21017AA  22091.73477641  .00019892  00000-0  13495-2 0  9995"},{"MEAN_ELEMENT_THEORY":"SGP4","BSTAR":"0.00081649000000","COUNTRY_CODE":"US","INCLINATION":"53.0524","OBJECT_TYPE":"PAYLOAD","FILE":"3383778","PERIOD":"95.590","NORAD_CAT_ID":"47747","OBJECT_ID":"2021-017AB","TLE_LINE2":"2 47747  53.0524 176.8669 0001538  56.3733 303.7402 15.06432636 61166","CENTER_NAME":"EARTH","MEAN_MOTION":"15.06432636","TIME_SYSTEM":"UTC","LAUNCH_DATE":"2021-03-04","TLE_LINE1":"1 47747U 21017AB  22091.73200647  .00011912  00000-0  81649-3 0  9998","MEAN_ANOMALY":"303.7402","CLASSIFICATION_TYPE":"U","SEMIMAJOR_AXIS":"6925.249","SITE":"AFETR","MEAN_MOTION_DDOT":"0.0000000000000","GP_ID":"200264430","OBJECT_NAME":"STARLINK-2161","MEAN_MOTION_DOT":"0.00011912","PERIAPSIS":"546.048","ECCENTRICITY":"0.00015380","EPHEMERIS_TYPE":"0","ARG_OF_PERICENTER":"56.3733","EPOCH":"2022-04-01T17:34:05.359008","RA_OF_ASC_NODE":"176.8669","REV_AT_EPOCH":"6116","DECAY_DATE":null,"RCS_SIZE":"LARGE","ELEMENT_SET_NO":"999","REF_FRAME":"TEME","APOAPSIS":"548.179"},{"MEAN_ELEMENT_THEORY":"SGP4","BSTAR":"0.00074042000000","COUNTRY_CODE":"US","INCLINATION":"53.0526","FILE":"3383572","OBJECT_TYPE":"PAYLOAD","PERIOD":"95.590","NORAD_CAT_ID":"47748","OBJECT_ID":"2021-017AC","TLE_LINE2":"2 47748  53.0526 177.7965 0001734  53.1956 306.9191 15.06429534 60474","TIME_SYSTEM":"UTC","MEAN_MOTION":"15.06429534","CENTER_NAME":"EARTH","TLE_LINE1":"1 47748U 21017AC  22091.52560243  .00010773  00000-0  74042-3 0  9990","LAUNCH_DATE":"2021-03-04","MEAN_ANOMALY":"306.9191","CLASSIFICATION_TYPE":"U","SEMIMAJOR_AXIS":"6925.258","SITE":"AFETR","MEAN_MOTION_DDOT":"0.0000000000000","OBJECT_NAME":"STARLINK-2162","GP_ID":"200237755","MEAN_MOTION_DOT":"0.00010773","PERIAPSIS":"545.922","ARG_OF_PERICENTER":"53.1956","EPHEMERIS_TYPE":"0","ECCENTRICITY":"0.00017340","REV_AT_EPOCH":"6047","RA_OF_ASC_NODE":"177.7965","EPOCH":"2022-04-01T12:36:52.049952","DECAY_DATE":null,"ELEMENT_SET_NO":"999","RCS_SIZE":"LARGE","REF_FRAME":"TEME","APOAPSIS":"548.324"},{"APOAPSIS":"548.164","REF_FRAME":"TEME","ELEMENT_SET_NO":"999","RCS_SIZE":"MEDIUM","DECAY_DATE":null,"REV_AT_EPOCH":"6047","EPOCH":"2022-04-01T12:58:05.688768","RA_OF_ASC_NODE":"177.7238","ARG_OF_PERICENTER":"54.0511","EPHEMERIS_TYPE":"0","ECCENTRICITY":"0.00015340","PERIAPSIS":"546.039","MEAN_MOTION_DOT":"0.00014360","GP_ID":"200237721","OBJECT_NAME":"STARLINK-2163","MEAN_MOTION_DDOT":"0.0000000000000","SITE":"AFETR","SEMIMAJOR_AXIS":"6925.236","CLASSIFICATION_TYPE":"U","MEAN_ANOMALY":"306.0620","TLE_LINE1":"1 47749U 21017AD  22091.54034362  .00014360  00000-0  97999-3 0  9993","LAUNCH_DATE":"2021-03-04","TIME_SYSTEM":"UTC","MEAN_MOTION":"15.06436671","CENTER_NAME":"EARTH","TLE_LINE2":"2 47749  53.0549 177.7238 0001534  54.0511 306.0620 15.06436671 60476","OBJECT_ID":"2021-017AD","NORAD_CAT_ID":"47749","PERIOD":"95.590","FILE":"3383587","OBJECT_TYPE":"PAYLOAD","INCLINATION":"53.0549","COUNTRY_CODE":"US","BSTAR":"0.00097999000000","MEAN_ELEMENT_THEORY":"SGP4"},{"NORAD_CAT_ID":"47750","OBJECT_ID":"2021-017AE","PERIOD":"95.590","FILE":"3383778","OBJECT_TYPE":"PAYLOAD","INCLINATION":"53.0539","BSTAR":"0.00071101000000","COUNTRY_CODE":"US","MEAN_ELEMENT_THEORY":"SGP4","SEMIMAJOR_AXIS":"6925.248","CLASSIFICATION_TYPE":"U","MEAN_ANOMALY":"305.1888","TLE_LINE1":"1 47750U 21017AE  22091.71726192  .00010334  00000-0  71101-3 0  9997","LAUNCH_DATE":"2021-03-04","TIME_SYSTEM":"UTC","MEAN_MOTION":"15.06432843","CENTER_NAME":"EARTH","TLE_LINE2":"2 47750  53.0539 176.9401 0001608  54.9252 305.1888 15.06432843 61130","REV_AT_EPOCH":"6113","RA_OF_ASC_NODE":"176.9401","EPOCH":"2022-04-01T17:12:51.429888","ARG_OF_PERICENTER":"54.9252","EPHEMERIS_TYPE":"0","ECCENTRICITY":"0.00016080","PERIAPSIS":"545.999","MEAN_MOTION_DOT":"0.00010334","OBJECT_NAME":"STARLINK-2164","GP_ID":"200264188","MEAN_MOTION_DDOT":"0.0000000000000","SITE":"AFETR","APOAPSIS":"548.226","REF_FRAME":"TEME","ELEMENT_SET_NO":"999","RCS_SIZE":"LARGE","DECAY_DATE":null},{"SEMIMAJOR_AXIS":"6925.346","MEAN_ANOMALY":"313.5585","CLASSIFICATION_TYPE":"U","TIME_SYSTEM":"UTC","MEAN_MOTION":"15.06400829","CENTER_NAME":"EARTH","TLE_LINE1":"1 47751U 21017AF  22091.48229746  .00001246  00000-0  10256-3 0  9991","LAUNCH_DATE":"2021-03-04","TLE_LINE2":"2 47751  53.0539 167.9706 0001845  46.5557 313.5585 15.06400829 61245","NORAD_CAT_ID":"47751","OBJECT_ID":"2021-017AF","FILE":"3383353","OBJECT_TYPE":"PAYLOAD","PERIOD":"95.592","INCLINATION":"53.0539","MEAN_ELEMENT_THEORY":"SGP4","COUNTRY_CODE":"US","BSTAR":"0.00010256000000","APOAPSIS":"548.489","REF_FRAME":"TEME","DECAY_DATE":null,"ELEMENT_SET_NO":"999","RCS_SIZE":"MEDIUM","ARG_OF_PERICENTER":"46.5557","ECCENTRICITY":"0.00018450","EPHEMERIS_TYPE":"0","REV_AT_EPOCH":"6124","RA_OF_ASC_NODE":"167.9706","EPOCH":"2022-04-01T11:34:30.500544","PERIAPSIS":"545.933","MEAN_MOTION_DOT":"0.00001246","OBJECT_NAME":"STARLINK-2168","GP_ID":"200229153","SITE":"AFETR","MEAN_MOTION_DDOT":"0.0000000000000"},{"PERIOD":"95.590","OBJECT_TYPE":"PAYLOAD","FILE":"3383778","NORAD_CAT_ID":"47752","OBJECT_ID":"2021-017AG","COUNTRY_CODE":"US","BSTAR":"0.00080864000000","MEAN_ELEMENT_THEORY":"SGP4","INCLINATION":"53.0528","CLASSIFICATION_TYPE":"U","MEAN_ANOMALY":"304.2516","SEMIMAJOR_AXIS":"6925.248","TLE_LINE2":"2 47752  53.0528 181.9467 0001685  55.8632 304.2516 15.06432909 61114","LAUNCH_DATE":"2021-03-04","TLE_LINE1":"1 47752U 21017AG  22091.71495650  .00011794  00000-0  80864-3 0  9998","MEAN_MOTION":"15.06432909","CENTER_NAME":"EARTH","TIME_SYSTEM":"UTC","MEAN_MOTION_DOT":"0.00011794","PERIAPSIS":"545.946","EPOCH":"2022-04-01T17:09:32.241600","RA_OF_ASC_NODE":"181.9467","REV_AT_EPOCH":"6111","ECCENTRICITY":"0.00016850","EPHEMERIS_TYPE":"0","ARG_OF_PERICENTER":"55.8632","MEAN_MOTION_DDOT":"0.0000000000000","SITE":"AFETR","GP_ID":"200262686","OBJECT_NAME":"STARLINK-2169","REF_FRAME":"TEME","APOAPSIS":"548.280","RCS_SIZE":"MEDIUM","ELEMENT_SET_NO":"999","DECAY_DATE":null}];
